OBJECT_NAME,OBJECT_ID,EPOCH,MEAN_MOTION,ECCENTRICITY,INCLINATION,RA_OF_ASC_NODE,ARG_OF_PERICENTER,MEAN_ANOMALY,EPHEMERIS_TYPE,CLASSIFICATION_TYPE,NORAD_CAT_ID,ELEMENT_SET_NO,REV_AT_EPOCH,BSTAR,MEAN_MOTION_DOT,MEAN_MOTION_DDOT
STARLINK-32590,2025-034U,2026-07-11T20:08:46.790016,15.30191270,.00012617,53.1596,41.5343,111.0081,249.1055,0,U,63047,999,7808,.4900142E-3,.14177E-3,0
STARLINK-32790,2025-034V,2026-07-11T20:29:54.110400,15.34387453,.00014861,53.1608,40.2090,77.5651,282.5518,0,U,63048,999,7811,.90421724E-3,.30285E-3,0
STARLINK-32829,2025-034W,2026-07-11T20:29:58.671456,15.34395959,.00010897,53.1600,52.2839,99.0579,261.0547,0,U,63049,999,7794,.40189849E-3,.13225E-3,0
STARLINK-32816,2025-034X,2026-07-11T20:26:56.967072,15.34395258,.00014361,53.1592,52.2671,101.9685,258.1479,0,U,63050,999,7794,.38610935E-3,.12689E-3,0
STARLINK-32835,2025-034Y,2026-07-11T20:08:46.237920,15.34403251,.00010618,53.1588,52.1980,89.4078,270.7047,0,U,63051,999,7794,.69972766E-3,.23341E-3,0
STARLINK-11550 [DTC],2025-035A,2026-07-11T20:52:53.984064,15.70861871,.0002899,43.0023,346.6132,276.3698,83.6840,0,U,63052,999,8075,.8180642E-3,.105978E-2,0
STARLINK-11563 [DTC],2025-035B,2026-07-11T17:57:25.517664,15.70866734,.00021746,43.0006,347.4190,270.2831,89.7788,0,U,63053,999,8062,.10007822E-2,.130146E-2,0
STARLINK-11347 [DTC],2025-035C,2026-07-11T11:05:29.887872,15.70953681,.00013237,42.9992,349.5909,209.2330,150.8464,0,U,63054,999,8068,.1041836E-2,.136092E-2,0
STARLINK-11558 [DTC],2025-035D,2026-07-11T17:26:50.732448,15.70824643,.00019056,42.9999,347.2473,262.7463,97.3188,0,U,63055,999,8062,.97995254E-3,.127154E-2,0
STARLINK-11392 [DTC],2025-035E,2026-07-11T16:56:26.200320,15.70861873,.00039169,42.9990,347.9704,281.0583,78.9844,0,U,63056,999,8072,.85234584E-3,.110517E-2,0
STARLINK-11406 [DTC],2025-035F,2026-07-11T18:05:04.350048,15.70838537,.00020058,42.9994,347.4557,236.0716,123.9961,0,U,63057,999,8061,.80556382E-3,.104218E-2,0
STARLINK-11418 [DTC],2025-035G,2026-07-11T21:54:03.783456,15.70872483,.00018889,42.9986,346.9475,255.8256,104.2402,0,U,63058,999,8063,.1035176E-2,.134739E-2,0
STARLINK-11509 [DTC],2025-035H,2026-07-11T14:00:58.070880,15.70868373,.00015928,42.9944,348.7734,186.5574,173.5273,0,U,63059,999,8058,.91846563E-3,.119251E-2,0
STARLINK-11403 [DTC],2025-035J,2026-07-11T10:42:33.442560,15.70873516,.00018126,42.9990,349.4573,252.7127,107.3542,0,U,63060,999,8068,.41678895E-3,.53452E-3,0
STARLINK-11409 [DTC],2025-035K,2026-07-11T18:29:19.268160,15.70824114,.00018908,42.9994,347.5914,270.7980,89.2671,0,U,63061,999,8073,.84257678E-3,.109023E-2,0
STARLINK-11412 [DTC],2025-035L,2026-07-10T22:22:26.270400,15.70981834,.00038507,43.0038,352.4809,292.6960,67.3500,0,U,63062,999,8060,.85366478E-3,.111257E-2,0
STARLINK-11399 [DTC],2025-035M,2026-07-11T11:35:53.694240,15.70984573,.00018513,42.9996,348.8581,300.0918,59.9766,0,U,63063,999,8069,.11563774E-2,.151588E-2,0
STARLINK-11408 [DTC],2025-035N,2026-07-11T14:31:22.320480,15.70861237,.00015525,42.9992,348.0484,264.4320,95.6370,0,U,63064,999,8071,.1064645E-2,.138584E-2,0
STARLINK-33635,2025-035P,2026-07-11T07:02:31.896672,15.27581560,.00011067,42.9994,169.0016,279.3187,80.7540,0,U,63065,999,7863,.27391302E-3,.7283E-4,0
STARLINK-33622,2025-035Q,2026-07-11T22:18:11.050848,15.27581026,.00011516,42.9981,165.1655,273.1047,86.9673,0,U,63066,999,7873,.22699725E-3,.599E-4,0
STARLINK-33628,2025-035R,2026-07-11T07:28:26.001120,15.27590615,.00018688,43.0040,169.1385,274.8570,85.2068,0,U,63067,999,7863,.39257737E-3,.1056E-3,0
STARLINK-33627,2025-035S,2026-07-11T22:58:54.117984,15.27581977,.00018265,43.0017,165.3843,283.6315,76.4334,0,U,63068,999,7872,.34606378E-3,.9273E-4,0
STARLINK-33620,2025-035T,2026-07-11T07:11:47.437440,15.27592761,.00008777,42.9982,169.0474,351.6503,8.4334,0,U,63069,999,7862,.49023283E-3,.13258E-3,0
STARLINK-33604,2025-035U,2026-07-11T09:22:57.004320,15.27587328,.0001275,43.0004,168.8844,279.9966,80.0742,0,U,63070,999,7863,.29004218E-3,.7729E-4,0
STARLINK-33624,2025-035V,2026-07-11T08:29:50.244864,15.29865314,.00006588,42.9991,165.1299,156.0979,203.9904,0,U,63071,999,7857,.11364564E-2,.3343E-3,0
STARLINK-33623,2025-035W,2026-07-10T23:48:45.914976,15.27610282,.00033763,43.0037,171.0434,80.2522,279.8711,0,U,63072,999,7858,.6851793E-3,.18659E-3,0
STARLINK-33586,2025-035X,2026-07-11T06:49:06.977856,15.27599684,.00010883,42.9971,161.9958,270.7149,89.3578,0,U,63073,999,7871,.27211057E-3,.7238E-4,0
STARLINK-33605,2025-035Y,2026-07-11T09:54:11.957760,15.27592623,.00011604,42.9966,168.1719,307.4715,52.6031,0,U,63074,999,7864,.41972212E-3,.1131E-3,0
ZHONGXING-10R,2025-036A,2026-07-11T22:21:44.032032,1.00273811,.00041466,0.0476,219.4929,287.9745,228.2937,0,U,63075,999,520,0,-.348E-5,0
STARLINK-32839,2025-037A,2026-07-11T19:43:07.347648,14.98320930,.00032165,70.0010,41.5627,274.2441,85.8351,0,U,63077,999,7718,.35481952E-3,.4142E-4,0
