STARLINK-32590          
1 63047U 25034U   26192.83943044  .00014177  00000+0  49001-3 0  9995
2 63047  53.1596  41.5343 0001261 111.0081 249.1055 15.30191270 78081
STARLINK-32790          
1 63048U 25034V   26192.85409850  .00030285  00000+0  90422-3 0  9991
2 63048  53.1608  40.2090 0001486  77.5651 282.5518 15.34387453 78112
STARLINK-32829          
1 63049U 25034W   26192.85415129  .00013225  00000+0  40190-3 0  9990
2 63049  53.1600  52.2839 0001089  99.0579 261.0547 15.34395959 77940
STARLINK-32816          
1 63050U 25034X   26192.85204823  .00012689  00000+0  38611-3 0  9997
2 63050  53.1592  52.2671 0001436 101.9685 258.1479 15.34395258 77946
STARLINK-32835          
1 63051U 25034Y   26192.83942405  .00023341  00000+0  69973-3 0  9993
2 63051  53.1588  52.1980 0001061  89.4078 270.7047 15.34403251 77948
STARLINK-11550 [DTC]    
1 63052U 25035A   26192.87006926  .00105978  00000+0  81806-3 0  9994
2 63052  43.0023 346.6132 0002899 276.3698  83.6840 15.70861871 80757
STARLINK-11563 [DTC]    
1 63053U 25035B   26192.74821201  .00130146  00000+0  10008-2 0  9992
2 63053  43.0006 347.4190 0002174 270.2831  89.7788 15.70866734 80627
STARLINK-11347 [DTC]    
1 63054U 25035C   26192.46215148  .00136092  00000+0  10418-2 0  9990
2 63054  42.9992 349.5909 0001323 209.2330 150.8464 15.70953681 80687
STARLINK-11558 [DTC]    
1 63055U 25035D   26192.72697607  .00127154  00000+0  97995-3 0  9999
2 63055  42.9999 347.2473 0001905 262.7463  97.3188 15.70824643 80620
STARLINK-11392 [DTC]    
1 63056U 25035E   26192.70585880  .00110517  00000+0  85235-3 0  9996
2 63056  42.9990 347.9704 0003916 281.0583  78.9844 15.70861873 80728
STARLINK-11406 [DTC]    
1 63057U 25035F   26192.75352257  .00104218  00000+0  80556-3 0  9994
2 63057  42.9994 347.4557 0002005 236.0716 123.9961 15.70838537 80610
STARLINK-11418 [DTC]    
1 63058U 25035G   26192.91254379  .00134739  00000+0  10352-2 0  9996
2 63058  42.9986 346.9475 0001888 255.8256 104.2402 15.70872483 80633
STARLINK-11509 [DTC]    
1 63059U 25035H   26192.58400545  .00119251  00000+0  91847-3 0  9999
2 63059  42.9944 348.7734 0001592 186.5574 173.5273 15.70868373 80583
STARLINK-11403 [DTC]    
1 63060U 25035J   26192.44622040  .00053452  00000+0  41679-3 0  9990
2 63060  42.9990 349.4573 0001812 252.7127 107.3542 15.70873516 80680
STARLINK-11409 [DTC]    
1 63061U 25035K   26192.77036190  .00109023  00000+0  84258-3 0  9998
2 63061  42.9994 347.5914 0001890 270.7980  89.2671 15.70824114 80733
STARLINK-11412 [DTC]    
1 63062U 25035L   26191.93224850  .00111257  00000+0  85366-3 0  9991
2 63062  43.0038 352.4809 0003850 292.6960  67.3500 15.70981834 80609
STARLINK-11399 [DTC]    
1 63063U 25035M   26192.48326035  .00151588  00000+0  11564-2 0  9990
2 63063  42.9996 348.8581 0001851 300.0918  59.9766 15.70984573 80696
STARLINK-11408 [DTC]    
1 63064U 25035N   26192.60511945  .00138584  00000+0  10646-2 0  9992
2 63064  42.9992 348.0484 0001552 264.4320  95.6370 15.70861237 80717
STARLINK-33635          
1 63065U 25035P   26192.29342473  .00007283  00000+0  27391-3 0  9993
2 63065  42.9994 169.0016 0001106 279.3187  80.7540 15.27581560 78635
STARLINK-33622          
1 63066U 25035Q   26192.92929457  .00005990  00000+0  22700-3 0  9999
2 63066  42.9981 165.1655 0001151 273.1047  86.9673 15.27581026 78738
STARLINK-33628          
1 63067U 25035R   26192.31141205  .00010560  00000+0  39258-3 0  9995
2 63067  43.0040 169.1385 0001868 274.8570  85.2068 15.27590615 78638
STARLINK-33627          
1 63068U 25035S   26192.95757081  .00009273  00000+0  34606-3 0  9992
2 63068  43.0017 165.3843 0001826 283.6315  76.4334 15.27581977 78728
STARLINK-33620          
1 63069U 25035T   26192.29985460  .00013258  00000+0  49023-3 0  9991
2 63069  42.9982 169.0474 0000877 351.6503   8.4334 15.27592761 78626
STARLINK-33604          
1 63070U 25035U   26192.39093755  .00007729  00000+0  29004-3 0  9994
2 63070  43.0004 168.8844 0001275 279.9966  80.0742 15.27587328 78634
STARLINK-33624          
1 63071U 25035V   26192.35405376  .00033430  00000+0  11365-2 0  9995
2 63071  42.9991 165.1299 0000658 156.0979 203.9904 15.29865314 78570
STARLINK-33623          
1 63072U 25035W   26191.99219809  .00018659  00000+0  68518-3 0  9998
2 63072  43.0037 171.0434 0003376  80.2522 279.8711 15.27610282 78582
STARLINK-33586          
1 63073U 25035X   26192.28410854  .00007238  00000+0  27211-3 0  9991
2 63073  42.9971 161.9958 0001088 270.7149  89.3578 15.27599684 78718
STARLINK-33605          
1 63074U 25035Y   26192.41263840  .00011310  00000+0  41972-3 0  9994
2 63074  42.9966 168.1719 0001160 307.4715  52.6031 15.27592623 78640
ZHONGXING-10R           
1 63075U 25036A   26192.93175963 -.00000348  00000+0  00000+0 0  9994
2 63075   0.0476 219.4929 0004146 287.9745 228.2937  1.00273811  5206
STARLINK-32839          
1 63077U 25037A   26192.82161282  .00004142  00000+0  35482-3 0  9995
2 63077  70.0010  41.5627 0003216 274.2441  85.8351 14.98320930 77186
